FLOCK 4G-6              
1 62660U 25009BD  26068.71061311  .00012261  00000+0  45910-3 0  9991
2 62660  97.3980 150.7943 0002380 348.2637  11.8546 15.27432125121307
STARLINK-34141          
1 64020U 25101AC  26067.83547559  .00030132  00000+0  11000-2 0  9990
2 64020  42.9999   2.8639 0000945 285.9629  74.1118 15.27581531 46924
